CCSDS_OMM_VERS,COMMENT,CREATION_DATE,ORIGINATOR,OBJECT_NAME,OBJECT_ID,CENTER_NAME,REF_FRAME,TIME_SYSTEM,MEAN_ELEMENT_THEORY,EPOCH,MEAN_MOTION,ECCENTRICITY,INCLINATION,RA_OF_ASC_NODE,ARG_OF_PERICENTER,MEAN_ANOMALY,EPHEMERIS_TYPE,CLASSIFICATION_TYPE,NORAD_CAT_ID,ELEMENT_SET_NO,REV_AT_EPOCH,BSTAR,MEAN_MOTION_DOT,MEAN_MOTION_DDOT,SEMIMAJOR_AXIS,PERIOD,APOAPSIS,PERIAPSIS,OBJECT_TYPE,RCS_SIZE,COUNTRY_CODE,LAUNCH_DATE,SITE,DECAY_DATE,FILE,GP_ID,TLE_LINE0,TLE_LINE1,TLE_LINE2
"2.0","GENERATED VIA SPACE-TRACK.ORG API","2020-02-20T21:37:49","18 SPCS","ORBCOMM FM 30","1999-065A","EARTH","TEME","UTC","SGP4","2020-02-20T01:02:09.420576","14.32847988","0.00064360","45.0316","243.9748","46.7873","313.3510","0","U","25980","999","5537","0.00005469300000","0.00000010","0.0000000000000","7160.363","100.499","786.837","777.620","PAYLOAD","MEDIUM","ORB","1999-12-04","AFETR","","2706925","149162757","0 ORBCOMM FM 30","1 25980U 99065A   20051.04316459 +.00000010 +00000-0 +54693-4 0  9995","2 25980 045.0316 243.9748 0006436 046.7873 313.3510 14.32847988055376"
"2.0","GENERATED VIA SPACE-TRACK.ORG API","2020-02-20T02:33:05","18 SPCS","CZ-4 DEB","1999-057SK","EARTH","TEME","UTC","SGP4","2020-02-19T20:25:55.070976","14.46710565","0.01163580","98.7079","62.0864","183.1695","299.5923","0","U","35331","999","32225","0.00014082000000","0.00000502","0.0000000000000","7114.549","99.536","819.197","653.631","DEBRIS","SMALL","PRC","1999-10-14","TSC","","2706484","149119052","0 CZ-4 DEB","1 35331U 99057SK  20050.85133184 +.00000502 +00000-0 +14082-3 0  9990","2 35331 098.7079 062.0864 0116358 183.1695 299.5923 14.46710565322252"
"2.0","GENERATED VIA SPACE-TRACK.ORG API","2020-02-19T22:36:17","18 SPCS","ORBCOMM FM 30","1999-065A","EARTH","TEME","UTC","SGP4","2020-02-19T20:00:56.976192","14.32847971","0.00064440","45.0316","244.9576","45.6537","314.4837","0","U","25980","999","5587","0.00005845400000","0.00000020","0.0000000000000","7160.363","100.499","786.843","777.614","PAYLOAD","MEDIUM","ORB","1999-12-04","AFETR","","2706351","149104156","0 ORBCOMM FM 30","1 25980U 99065A   20050.83399278  .00000020  00000-0  58454-4 0  9991","2 25980  45.0316 244.9576 0006444  45.6537 314.4837 14.32847971 55871"
"2.0","GENERATED VIA SPACE-TRACK.ORG API","2020-02-19T18:10:11","18 SPCS","ORBCOMM FM 30","1999-065A","EARTH","TEME","UTC","SGP4","2020-02-19T13:19:20.387712","14.32847910","0.00064670","45.0316","246.2683","44.0141","316.1220","0","U","25980","999","5530","0.00006128800000","0.00000028","0.0000000000000","7160.364","100.499","786.859","777.598","PAYLOAD","MEDIUM","ORB","1999-12-04","AFETR","","2706317","149090728","0 ORBCOMM FM 30","1 25980U 99065A   20050.55509708 +.00000028 +00000-0 +61288-4 0  9998","2 25980 045.0316 246.2683 0006467 044.0141 316.1220 14.32847910055300"
"2.0","GENERATED VIA SPACE-TRACK.ORG API","2020-02-19T14:26:15","18 SPCS","CZ-4 DEB","1999-057SK","EARTH","TEME","UTC","SGP4","2020-02-19T12:15:44.478144","14.46710054","0.01163430","98.7079","61.7365","184.1929","326.7340","0","U","35331","999","89998","0.00013351000000","0.00000473","0.0000000000000","7114.551","99.536","819.189","653.643","DEBRIS","SMALL","PRC","1999-10-14","TSC","","2705977","149075713","0 CZ-4 DEB","1 35331U 99057SK  20050.51093146  .00000473  00000-0  13351-3 0  9991","2 35331  98.7079  61.7365 0116343 184.1929 326.7340 14.46710054899987"
"2.0","GENERATED VIA SPACE-TRACK.ORG API","2020-02-19T02:05:32","18 SPCS","ORBCOMM FM 30","1999-065A","EARTH","TEME","UTC","SGP4","2020-02-18T20:35:18.913920","14.32847650","0.00065100","45.0316","249.5449","40.2274","319.9054","0","U","25980","999","5520","0.00006141400000","0.00000028","0.0000000000000","7160.365","100.499","786.891","777.568","PAYLOAD","MEDIUM","ORB","1999-12-04","AFETR","","2705515","149033092","0 ORBCOMM FM 30","1 25980U 99065A   20049.85785780 +.00000028 +00000-0 +61414-4 0  9996","2 25980 045.0316 249.5449 0006510 040.2274 319.9054 14.32847650055206"
"2.0","GENERATED VIA SPACE-TRACK.ORG API","2020-02-19T02:05:32","18 SPCS","CZ-4 DEB","1999-057SK","EARTH","TEME","UTC","SGP4","2020-02-18T19:32:57.177888","14.46709156","0.01163020","98.7079","61.0207","186.2916","299.8723","0","U","35331","999","32210","0.00012318000000","0.00000432","0.0000000000000","7114.554","99.536","819.162","653.675","DEBRIS","SMALL","PRC","1999-10-14","TSC","","2705515","149038350","0 CZ-4 DEB","1 35331U 99057SK  20049.81455067 +.00000432 +00000-0 +12318-3 0  9993","2 35331 098.7079 061.0207 0116302 186.2916 299.8723 14.46709156322100"
"2.0","GENERATED VIA SPACE-TRACK.ORG API","2020-02-18T22:40:19","18 SPCS","ORBCOMM FM 30","1999-065A","EARTH","TEME","UTC","SGP4","2020-02-18T18:54:54.762912","14.32847644","0.00065140","45.0316","249.8725","39.8430","320.2894","0","U","25980","999","5572","0.00006201800000","0.00000030","0.0000000000000","7160.365","100.499","786.894","777.565","PAYLOAD","MEDIUM","ORB","1999-12-04","AFETR","","2705264","149021631","0 ORBCOMM FM 30","1 25980U 99065A   20049.78813383  .00000030  00000-0  62018-4 0  9993","2 25980  45.0316 249.8725 0006514  39.8430 320.2894 14.32847644 55725"
"2.0","GENERATED VIA SPACE-TRACK.ORG API","2020-02-18T19:51:05","18 SPCS","ORBCOMM FM 30","1999-065A","EARTH","TEME","UTC","SGP4","2020-02-18T13:53:42.313344","14.32847623","0.00065330","45.0316","250.8555","38.6202","321.5111","0","U","25980","999","5516","0.00006523300000","0.00000039","0.0000000000000","7160.365","100.499","786.908","777.552","PAYLOAD","MEDIUM","ORB","1999-12-04","AFETR","","2705151","149007020","0 ORBCOMM FM 30","1 25980U 99065A   20049.57896196 +.00000039 +00000-0 +65233-4 0  9994","2 25980 045.0316 250.8555 0006533 038.6202 321.5111 14.32847623055164"
"2.0","GENERATED VIA SPACE-TRACK.ORG API","2020-02-18T02:23:46","18 SPCS","ORBCOMM FM 30","1999-065A","EARTH","TEME","UTC","SGP4","2020-02-17T16:08:28.370112","14.32847366","0.00065950","45.0316","255.1150","33.6801","326.4463","0","U","25980","999","5503","0.00006850700000","0.00000048","0.0000000000000","7160.365","100.499","786.953","777.508","PAYLOAD","MEDIUM","ORB","1999-12-04","AFETR","","2704550","148973992","0 ORBCOMM FM 30","1 25980U 99065A   20048.67255058 +.00000048 +00000-0 +68507-4 0  9997","2 25980 045.0316 255.1150 0006595 033.6801 326.4463 14.32847366055035"
"2.0","GENERATED VIA SPACE-TRACK.ORG API","2020-02-17T20:24:49","18 SPCS","CZ-4 DEB","1999-057SK","EARTH","TEME","UTC","SGP4","2020-02-17T12:07:51.072672","14.46707896","0.01162130","98.7081","59.6751","190.2442","321.8777","0","U","35331","999","32191","0.00011671000000","0.00000406","0.0000000000000","7114.558","99.536","819.103","653.742","DEBRIS","SMALL","PRC","1999-10-14","TSC","","2704250","148933915","0 CZ-4 DEB","1 35331U 99057SK  20048.50545223 +.00000406 +00000-0 +11671-3 0  9994","2 35331 098.7081 059.6751 0116213 190.2442 321.8777 14.46707896321912"
"2.0","GENERATED VIA SPACE-TRACK.ORG API","2020-02-17T14:20:16","18 SPCS","CZ-4 DEB","1999-057SK","EARTH","TEME","UTC","SGP4","2020-02-17T06:45:48.174048","14.46707671","0.01162000","98.7081","59.4452","190.9183","237.1022","0","U","35331","999","89965","0.00011644000000","0.00000405","0.0000000000000","7114.558","99.536","819.095","653.752","DEBRIS","SMALL","PRC","1999-10-14","TSC","","2703955","148914993","0 CZ-4 DEB","1 35331U 99057SK  20048.28180757  .00000405  00000-0  11644-3 0  9995","2 35331  98.7081  59.4452 0116200 190.9183 237.1022 14.46707671899657"
"2.0","GENERATED VIA SPACE-TRACK.ORG API","2020-02-17T06:30:22","18 SPCS","ORBCOMM FM 30","1999-065A","EARTH","TEME","UTC","SGP4","2020-02-17T01:04:51.017952","14.32847183","0.00066510","45.0317","258.0641","30.2471","329.8758","0","U","25980","999","5547","0.00007103000000","0.00000055","0.0000000000000","7160.366","100.499","786.993","777.469","PAYLOAD","MEDIUM","ORB","1999-12-04","AFETR","","2703732","148909981","0 ORBCOMM FM 30","1 25980U 99065A   20048.04503493  .00000055  00000-0  71030-4 0  9990","2 25980  45.0317 258.0641 0006651  30.2471 329.8758 14.32847183 55471"
"2.0","GENERATED VIA SPACE-TRACK.ORG API","2020-02-17T01:07:42","18 SPCS","ORBCOMM FM 30","1999-065A","EARTH","TEME","UTC","SGP4","2020-02-16T21:44:02.715072","14.32847137","0.00066610","45.0317","258.7194","29.4747","330.6474","0","U","25980","999","5492","0.00007117200000","0.00000055","0.0000000000000","7160.366","100.499","787.001","777.462","PAYLOAD","MEDIUM","ORB","1999-12-04","AFETR","","2703640","148895446","0 ORBCOMM FM 30","1 25980U 99065A   20047.90558698 +.00000055 +00000-0 +71172-4 0  9998","2 25980 045.0317 258.7194 0006661 029.4747 330.6474 14.32847137054921"
"2.0","GENERATED VIA SPACE-TRACK.ORG API","2020-02-16T18:14:09","18 SPCS","ORBCOMM FM 30","1999-065A","EARTH","TEME","UTC","SGP4","2020-02-16T13:22:01.953120","14.32847047","0.00066900","45.0318","260.3576","27.5361","332.5839","0","U","25980","999","5487","0.00007199900000","0.00000057","0.0000000000000","7160.367","100.499","787.022","777.441","PAYLOAD","MEDIUM","ORB","1999-12-04","AFETR","","2703310","148868945","0 ORBCOMM FM 30","1 25980U 99065A   20047.55696705 +.00000057 +00000-0 +71999-4 0  9990","2 25980 045.0318 260.3576 0006690 027.5361 332.5839 14.32847047054878"
"2.0","GENERATED VIA SPACE-TRACK.ORG API","2020-02-16T18:14:09","18 SPCS","CZ-4 DEB","1999-057SK","EARTH","TEME","UTC","SGP4","2020-02-16T05:49:49.080288","14.46706714","0.01161300","98.7081","58.3772","194.0536","226.4632","0","U","35331","999","32173","0.00011453000000","0.00000398","0.0000000000000","7114.562","99.536","819.048","653.805","DEBRIS","SMALL","PRC","1999-10-14","TSC","","2703310","148874200","0 CZ-4 DEB","1 35331U 99057SK  20047.24292917 +.00000398 +00000-0 +11453-3 0  9991","2 35331 098.7081 058.3772 0116130 194.0536 226.4632 14.46706714321733"
